#aV2015  9 17  0  0  0.00000000     288 DD+AD WGS84 FIT  NGA
## 1862 345600.00000000   300.00000000 57282 0.0000000000000
+   31     1  2  3  4  5  6  7  8  9 11 12 13 14 15 16 17 18
+         19 20 21 22 23 24 25 26 27 28 29 30 31 32  0  0  0
+          0  0  0  0  0  0  0  0  0  0  0  0  0  0  0  0  0
+          0  0  0  0  0  0  0  0  0  0  0  0  0  0  0  0  0
+          0  0  0  0  0  0  0  0  0  0  0  0  0  0  0  0  0
++         2  2  2  2  2  2  2  2  2  2  2  2  2  2  2  2  2
++         2  2  2  2  2  2  2  2  2  2  2  2  2  2  0  0  0
++         0  0  0  0  0  0  0  0  0  0  0  0  0  0  0  0  0
++         0  0  0  0  0  0  0  0  0  0  0  0  0  0  0  0  0
++         0  0  0  0  0  0  0  0  0  0  0  0  0  0  0  0  0
%c cc cc ccc ccc cccc cccc cccc cccc ccccc ccccc ccccc ccccc
%c cc cc ccc ccc cccc cccc cccc cccc ccccc ccccc ccccc ccccc
%f  0.0000000  0.000000000  0.00000000000  0.000000000000000
%f  0.0000000  0.000000000  0.00000000000  0.000000000000000
%i    0    0    0    0      0      0      0      0         0
%i    0    0    0    0      0      0      0      0         0
/*      NGA, ST. LOUIS,MO.                                  
/*   EPHEMERIS COMPUTED FROM  1 DAYS OF DATA                
/*   EPOCHA SMOOTHER                                       
/* CCCCCCCCCCCCCCCCCCCCCCCCCCCCCCCCCCCCCCCCCCCCCCCCCCCCCCCCC
*  2015  9 17  3 45  0.00000000
P  1 -15030.879789   2353.666979  21709.930848      0.631772                    
V  1  -7386.089788 -26714.334780  -2013.206447      0.006979                    
P  2  14177.405116  20210.025660  -9971.254069    589.211110                    
V  2   1378.600772  13331.124850  27473.910188      0.016153                    
P  3 -21460.862068  10616.470348  11530.694438     21.056814                    
V  3   8420.571017 -12193.096374  26896.209601      0.005440                    
P  4 -16755.618960  -8142.605812  18677.587830    -21.492002                    
V  4  -5637.820739 -23822.562097 -14904.732273     -0.042134                    
P  5  13288.121359   8440.386721 -21464.258369   -194.680089                    
V  5 -18484.175875  19893.867024  -3438.281059      0.040598                    
P  6   7290.624973  25542.576710    139.075885     59.525057                    
V  6  -2700.185175    594.948925  31791.443184      0.073317                    
P  7  -8060.169921  17647.427923 -17836.613776    484.657137                    
V  7  -7475.750760 -21843.233216 -18489.396375     -0.006576                    
P  8 -26043.322278  -4553.051682   2491.999672     -5.521173                    
V  8  -2354.243262  -3490.952401 -31542.727837     -0.013541                    
P  9 -15485.378499  10092.323344 -19084.872701     -9.027114                    
V  9 -23214.764485  -7083.384088  15078.660148      0.017875                    
P 11 -18939.394827  -1300.841531  18058.794584   -604.668181                    
V 11 -12451.523103 -21002.858928 -14052.784856     -0.023341                    
P 12  21234.708029  -7619.589975  13736.950523    328.797667                    
V 12 -11725.665194  13299.725177  25510.858930      0.034190                    
P 13  22245.351664  12943.511349  -6456.967189   -149.728337                    
V 13  -8370.837561   -551.299154 -30675.788810     -0.029698                    
P 14  -1535.263957 -16080.938281  21362.508264     34.213628                    
V 14  25319.139726   7818.247618   7647.147689     -0.026067                    
P 15  26414.032101   3090.558829   2703.093546   -271.993690                    
V 15   2813.644745   4019.722840 -30648.748381     -0.020503                    
P 16 -11942.820279  -8759.438010 -22153.756950    -85.785306                    
V 16  20582.457454 -18714.255410  -3354.097565      0.039463                    
P 17   2849.686664  15997.229658  21351.393416   -187.956854                    
V 17 -25388.707474  -6997.392678   8548.561869     -0.012814                    
P 18  14475.066910 -21574.978423   5234.107097    434.707992                    
V 18   7072.950418  -1802.066238 -30176.036262      0.032761                    
P 19 -24829.613917  -1677.564097   9695.845978   -520.205278                    
V 19 -11113.098477  -5978.782142 -28410.065904     -0.005736                    
P 20  20858.540370  -8126.764774 -14507.311871    355.897127                    
V 20  -9494.801401  15799.190221 -22659.419926      0.030554                    
P 21   5200.766894 -20641.649886 -14969.457971   -480.272872                    
V 21   8892.841607  18690.311292 -21997.675056     -0.027862                    
P 22   3687.701031 -21328.616975  15516.433395    392.049454                    
V 22  15228.958897 -12437.384537 -21215.339809      0.034731                    
P 23 -24977.506751    739.120634  -9454.704428   -133.651905                    
V 23 -11124.845335  -5488.217808  28025.232845     -0.021992                    
P 24  15969.833539    592.668591  21201.595826     -4.810667                    
V 24   7405.512599  25977.952411  -6139.186331     -0.006029                    
P 25  19475.169988 -17734.340236   2525.894622    -39.795738                    
V 25   -607.362374   4056.170605  32044.775091     -0.051627                    
P 26  -3231.362906 -16997.795213 -20152.849086    -55.168287                    
V 26  18455.350775 -17750.797028  12020.060621     -0.110888                    
P 27 -21810.825630 -12015.446223  -9439.076284     20.302832                    
V 27  12089.112688    657.594254 -28734.526610      0.029723                    
P 28  -8925.936274  20785.026135  14472.985272    468.101688                    
V 28 -13758.450661  10560.489312 -24807.086744      0.025230                    
P 29  17909.031094  -7390.418198 -18138.698728    634.630869                    
V 29  21621.121697   8071.085911  18082.327321      0.022265                    
P 30  -1385.230072  24857.420801  -9137.902251     25.813179                    
V 30  -5129.979986 -10812.483073 -28718.369833      0.065961                    
P 31  -6733.849360 -25492.333272   -449.086727    302.575394                    
V 31   2437.855021  -1368.249709  32261.762843     -0.013597                    
P 32 -18121.578266  -2276.096368  19047.233080    -41.165007                    
V 32  17184.106023 -17566.503831  14752.539222      0.111137                    
EOF
